[{"OBJECT_NAME":"STARLINK-36339","OBJECT_ID":"2026-003G","EPOCH":"2026-03-09T11:47:49.189920","MEAN_MOTION":15.27598668,"ECCENTRICITY":6.474e-5,"INCLINATION":42.9999,"RA_OF_ASC_NODE":228.1797,"ARG_OF_PERICENTER":275.2817,"MEAN_ANOMALY":84.7961,"EPHEMERIS_TYPE":0,"CLASSIFICATION_TYPE":"U","NORAD_CAT_ID":67340,"ELEMENT_SET_NO":999,"REV_AT_EPOCH":879,"BSTAR":0.0014122757,"MEAN_MOTION_DOT":0.00038827,"MEAN_MOTION_DDOT":0},{"OBJECT_NAME":"FENGYUN 1C DEB","OBJECT_ID":"1999-025DFQ","EPOCH":"2026-03-09T11:05:09.183840","MEAN_MOTION":15.08584918,"ECCENTRICITY":0.01333512,"INCLINATION":99.3393,"RA_OF_ASC_NODE":158.3034,"ARG_OF_PERICENTER":18.9579,"MEAN_ANOMALY":341.654,"EPHEMERIS_TYPE":0,"CLASSIFICATION_TYPE":"U","NORAD_CAT_ID":33679,"ELEMENT_SET_NO":999,"REV_AT_EPOCH":95428,"BSTAR":0.0014594523,"MEAN_MOTION_DOT":0.00028083,"MEAN_MOTION_DDOT":0}]
